[{"OBJECT_NAME":"MEASAT 3D","OBJECT_ID":"2022-067B","EPOCH":"2026-03-09T20:12:51.649344","MEAN_MOTION":1.00274845,"ECCENTRICITY":0.00032309,"INCLINATION":0.0494,"RA_OF_ASC_NODE":319.2982,"ARG_OF_PERICENTER":16.5707,"MEAN_ANOMALY":226.3712,"EPHEMERIS_TYPE":0,"CLASSIFICATION_TYPE":"U","NORAD_CAT_ID":52904,"ELEMENT_SET_NO":999,"REV_AT_EPOCH":1365,"BSTAR":0,"MEAN_MOTION_DOT":-2.41e-6,"MEAN_MOTION_DDOT":0},{"OBJECT_NAME":"KUPON","OBJECT_ID":"1997-070A","EPOCH":"2026-03-09T06:28:06.164256","MEAN_MOTION":1.00286817,"ECCENTRICITY":0.00054086,"INCLINATION":14.56,"RA_OF_ASC_NODE":355.3918,"ARG_OF_PERICENTER":309.321,"MEAN_ANOMALY":50.6293,"EPHEMERIS_TYPE":0,"CLASSIFICATION_TYPE":"U","NORAD_CAT_ID":25045,"ELEMENT_SET_NO":999,"REV_AT_EPOCH":10364,"BSTAR":0,"MEAN_MOTION_DOT":-2.58e-6,"MEAN_MOTION_DDOT":0}]
